{
  "type": "FeatureCollection",
  "generator": "overpass-turbo",
  "copyright": "The data included in this document is from www.openstreetmap.org. The data is made available under ODbL.",
  "timestamp": "2026-01-15T11:18:28Z",
  "features": [
    {
      "type": "Feature",
      "properties": {
        "@id": "relation/16121437",
        "building": "dormitory",
        "building:levels": "10",
        "name": "D3 乐雅苑",
        "name:en": "D3 Joyful Education Hall",
        "name:zh": "D3 乐雅苑",
        "type": "multipolygon",
        "@geometry": "center"
      },
      "geometry": {
        "type": "Point",
        "coordinates": [
          113.5113932,
          22.3602797
        ]
      },
      "id": "relation/16121437"
    },
    {
      "type": "Feature",
      "properties": {
        "@id": "relation/16121438",
        "building": "dormitory",
        "building:levels": "10",
        "name": "D4",
        "type": "multipolygon",
        "@geometry": "center"
      },
      "geometry": {
        "type": "Point",
        "coordinates": [
          113.5102784,
          22.3603663
        ]
      },
      "id": "relation/16121438"
    },
    {
      "type": "Feature",
      "properties": {
        "@id": "relation/16121439",
        "building": "dormitory",
        "building:levels": "10",
        "name": "D1 雍雅苑",
        "name:en": "D1 Harmony Education Hall",
        "name:zh": "D1 雍雅苑",
        "type": "multipolygon",
        "@geometry": "center"
      },
      "geometry": {
        "type": "Point",
        "coordinates": [
          113.5116079,
          22.3618645
        ]
      },
      "id": "relation/16121439"
    },
    {
      "type": "Feature",
      "properties": {
        "@id": "relation/16121440",
        "building": "dormitory",
        "building:levels": "10",
        "name": "D2",
        "type": "multipolygon",
        "@geometry": "center"
      },
      "geometry": {
        "type": "Point",
        "coordinates": [
          113.5118106,
          22.3609771
        ]
      },
      "id": "relation/16121440"
    },
    {
      "type": "Feature",
      "properties": {
        "@id": "relation/16123936",
        "building": "dormitory",
        "building:levels": "10",
        "name": "D6 正雅苑",
        "name:en": "D6 Positive Education Hall",
        "name:zh": "D6 正雅苑",
        "type": "multipolygon",
        "@geometry": "center"
      },
      "geometry": {
        "type": "Point",
        "coordinates": [
          113.51049,
          22.361953
        ]
      },
      "id": "relation/16123936"
    },
    {
      "type": "Feature",
      "properties": {
        "@id": "relation/16123937",
        "building": "dormitory",
        "building:levels": "10",
        "name": "D5 宏雅苑",
        "name:en": "D5 Hong Education Hall",
        "name:zh": "D5 宏雅苑",
        "type": "multipolygon",
        "@geometry": "center"
      },
      "geometry": {
        "type": "Point",
        "coordinates": [
          113.5100695,
          22.3612554
        ]
      },
      "id": "relation/16123937"
    },
    {
      "type": "Feature",
      "properties": {
        "@id": "relation/19432156",
        "amenity": "student_accommodation",
        "name": "科雅苑",
        "name:en": "Scientific Education Hall",
        "name:zh": "科雅苑",
        "type": "site",
        "@geometry": "center"
      },
      "geometry": {
        "type": "Point",
        "coordinates": [
          113.5163697,
          22.3544998
        ]
      },
      "id": "relation/19432156"
    },
    {
      "type": "Feature",
      "properties": {
        "@id": "way/664082908",
        "building": "university",
        "building:levels": "6",
        "layer": "1",
        "name": "T2 人文楼",
        "name:en": "T2 Humanities Building",
        "@geometry": "center"
      },
      "geometry": {
        "type": "Point",
        "coordinates": [
          113.5148681,
          22.3523537
        ]
      },
      "id": "way/664082908"
    },
    {
      "type": "Feature",
      "properties": {
        "@id": "way/664082909",
        "building": "university",
        "building:levels": "6",
        "name": "T3 格物楼",
        "name:en": "T3 Science Building",
        "@geometry": "center"
      },
      "geometry": {
        "type": "Point",
        "coordinates": [
          113.5145511,
          22.3527163
        ]
      },
      "id": "way/664082909"
    },
    {
      "type": "Feature",
      "properties": {
        "@id": "way/664082910",
        "building": "university",
        "building:levels": "6",
        "name": "T1 厚德楼",
        "name:en": "T1 Business and Management Building",
        "@geometry": "center"
      },
      "geometry": {
        "type": "Point",
        "coordinates": [
          113.5152254,
          22.351915
        ]
      },
      "id": "way/664082910"
    },
    {
      "type": "Feature",
      "properties": {
        "@id": "way/664082911",
        "building": "university",
        "building:levels": "2",
        "name": "演艺厅",
        "name:en": "Performance Theatre",
        "@geometry": "center"
      },
      "geometry": {
        "type": "Point",
        "coordinates": [
          113.516394,
          22.3513726
        ]
      },
      "id": "way/664082911"
    },
    {
      "type": "Feature",
      "properties": {
        "@id": "way/664082912",
        "building": "university",
        "building:levels": "6",
        "name": "行政楼",
        "name:en": "Administration Building",
        "@geometry": "center"
      },
      "geometry": {
        "type": "Point",
        "coordinates": [
          113.5161159,
          22.3509595
        ]
      },
      "id": "way/664082912"
    },
    {
      "type": "Feature",
      "properties": {
        "@id": "way/664082913",
        "building": "university",
        "building:levels": "3",
        "name": "大学会堂",
        "name:en": "University Hall",
        "@geometry": "center"
      },
      "geometry": {
        "type": "Point",
        "coordinates": [
          113.5157747,
          22.3510594
        ]
      },
      "id": "way/664082913"
    },
    {
      "type": "Feature",
      "properties": {
        "@id": "way/664082915",
        "building": "yes",
        "building:levels": "5",
        "leisure": "sports_centre",
        "name": "体育馆",
        "name:en": "Sport Complex",
        "@geometry": "center"
      },
      "geometry": {
        "type": "Point",
        "coordinates": [
          113.5147104,
          22.3515491
        ]
      },
      "id": "way/664082915"
    },
    {
      "type": "Feature",
      "properties": {
        "@id": "way/664093256",
        "building": "university",
        "building:levels": "7",
        "layer": "1",
        "name": "T4 教学楼",
        "name:en": "T4 Teaching Building",
        "@geometry": "center"
      },
      "geometry": {
        "type": "Point",
        "coordinates": [
          113.5167889,
          22.3530078
        ]
      },
      "id": "way/664093256"
    },
    {
      "type": "Feature",
      "properties": {
        "@id": "way/664093257",
        "building": "university",
        "building:levels": "7",
        "layer": "1",
        "name": "T5 教学楼",
        "name:en": "T5 Teaching Building",
        "@geometry": "center"
      },
      "geometry": {
        "type": "Point",
        "coordinates": [
          113.5163064,
          22.3531857
        ]
      },
      "id": "way/664093257"
    },
    {
      "type": "Feature",
      "properties": {
        "@id": "way/664093258",
        "building": "university",
        "building:levels": "7",
        "layer": "1",
        "name": "T6 教学楼",
        "name:en": "T6 Teaching Building",
        "@geometry": "center"
      },
      "geometry": {
        "type": "Point",
        "coordinates": [
          113.5157827,
          22.3533494
        ]
      },
      "id": "way/664093258"
    },
    {
      "type": "Feature",
      "properties": {
        "@id": "way/664093260",
        "building": "university",
        "building:levels": "7",
        "layer": "1",
        "name": "T7 教学楼",
        "name:en": "T7 Teaching Building",
        "@geometry": "center"
      },
      "geometry": {
        "type": "Point",
        "coordinates": [
          113.5153218,
          22.3535979
        ]
      },
      "id": "way/664093260"
    },
    {
      "type": "Feature",
      "properties": {
        "@id": "way/664093261",
        "building": "university",
        "building:levels": "6",
        "name": "T8 博简楼",
        "name:en": "T8 CEFC Building",
        "@geometry": "center"
      },
      "geometry": {
        "type": "Point",
        "coordinates": [
          113.5148064,
          22.3538129
        ]
      },
      "id": "way/664093261"
    },
    {
      "type": "Feature",
      "properties": {
        "@id": "way/664093272",
        "building": "dormitory",
        "building:levels": "7",
        "name": "V28 莎翁楼",
        "name:en": "V28 Shakespeare House",
        "name:zh": "V28 莎翁楼",
        "@geometry": "center"
      },
      "geometry": {
        "type": "Point",
        "coordinates": [
          113.5136481,
          22.352459
        ]
      },
      "id": "way/664093272"
    },
    {
      "type": "Feature",
      "properties": {
        "@id": "way/664093273",
        "building": "dormitory",
        "building:levels": "7",
        "name": "V27 雨果楼",
        "name:en": "V27 Hugo House",
        "name:zh": "V27 雨果楼",
        "@geometry": "center"
      },
      "geometry": {
        "type": "Point",
        "coordinates": [
          113.5126791,
          22.3535077
        ]
      },
      "id": "way/664093273"
    },
    {
      "type": "Feature",
      "properties": {
        "@id": "way/664093274",
        "building": "yes",
        "building:levels": "4",
        "name": "榆栈",
        "tourism": "hotel",
        "@geometry": "center"
      },
      "geometry": {
        "type": "Point",
        "coordinates": [
          113.5125158,
          22.3531148
        ]
      },
      "id": "way/664093274"
    },
    {
      "type": "Feature",
      "properties": {
        "@id": "way/664093275",
        "building": "dormitory",
        "building:levels": "7",
        "layer": "2",
        "name": "V26 歌德楼",
        "name:en": "V26 Goethe House",
        "name:zh": "V26 歌德楼",
        "@geometry": "center"
      },
      "geometry": {
        "type": "Point",
        "coordinates": [
          113.5133833,
          22.3533624
        ]
      },
      "id": "way/664093275"
    },
    {
      "type": "Feature",
      "properties": {
        "@id": "way/664093276",
        "building": "dormitory",
        "building:levels": "8",
        "layer": "1",
        "name": "V25 东坡楼",
        "name:en": "V25 Dong Po House",
        "name:zh": "V25 东坡楼",
        "@geometry": "center"
      },
      "geometry": {
        "type": "Point",
        "coordinates": [
          113.5139027,
          22.35316
        ]
      },
      "id": "way/664093276"
    },
    {
      "type": "Feature",
      "properties": {
        "@id": "way/664093277",
        "building": "dormitory",
        "building:levels": "6",
        "name": "V23 雪芹楼",
        "name:en": "V23 Xue Qin House",
        "name:zh": "V23 雪芹楼",
        "@geometry": "center"
      },
      "geometry": {
        "type": "Point",
        "coordinates": [
          113.5137204,
          22.3544759
        ]
      },
      "id": "way/664093277"
    },
    {
      "type": "Feature",
      "properties": {
        "@id": "way/664093278",
        "building": "dormitory",
        "building:levels": "6",
        "layer": "1",
        "name": "V24 阳明楼",
        "name:en": "V24 Yang Ming House",
        "name:zh": "V24 阳明楼",
        "@geometry": "center"
      },
      "geometry": {
        "type": "Point",
        "coordinates": [
          113.5133521,
          22.3543628
        ]
      },
      "id": "way/664093278"
    },
    {
      "type": "Feature",
      "properties": {
        "@id": "way/664093280",
        "building": "dormitory",
        "building:levels": "6",
        "name": "V20 笃行楼",
        "name:en": "V20 Du Xing House",
        "name:zh": "V20 笃行楼",
        "@geometry": "center"
      },
      "geometry": {
        "type": "Point",
        "coordinates": [
          113.5152025,
          22.3543334
        ]
      },
      "id": "way/664093280"
    },
    {
      "type": "Feature",
      "properties": {
        "@id": "way/664093281",
        "building": "dormitory",
        "building:levels": "6",
        "name": "V19 真知楼",
        "name:en": "V19 Zhen Zhi House",
        "name:zh": "V19 真知楼",
        "@geometry": "center"
      },
      "geometry": {
        "type": "Point",
        "coordinates": [
          113.5151693,
          22.3547471
        ]
      },
      "id": "way/664093281"
    },
    {
      "type": "Feature",
      "properties": {
        "@id": "way/664093283",
        "building": "dormitory",
        "building:levels": "6",
        "name": "V21 博文楼",
        "name:en": "V21 Bo Wen House",
        "name:zh": "V21 博文楼",
        "@geometry": "center"
      },
      "geometry": {
        "type": "Point",
        "coordinates": [
          113.5144959,
          22.3547258
        ]
      },
      "id": "way/664093283"
    },
    {
      "type": "Feature",
      "properties": {
        "@id": "way/664093285",
        "building": "dormitory",
        "building:levels": "6",
        "name": "V22 雅志楼",
        "name:en": "V22 Ya Zhi House",
        "name:zh": "V22 雅志楼",
        "@geometry": "center"
      },
      "geometry": {
        "type": "Point",
        "coordinates": [
          113.514478,
          22.3543053
        ]
      },
      "id": "way/664093285"
    },
    {
      "type": "Feature",
      "properties": {
        "@id": "way/664093286",
        "building": "dormitory",
        "building:levels": "8",
        "name": "V18 抱朴楼",
        "name:en": "V18 Bao Pu House",
        "name:zh": "V18 抱朴楼",
        "@geometry": "center"
      },
      "geometry": {
        "type": "Point",
        "coordinates": [
          113.5160236,
          22.3541478
        ]
      },
      "id": "way/664093286"
    },
    {
      "type": "Feature",
      "properties": {
        "@id": "way/664093287",
        "building": "dormitory",
        "building:levels": "6",
        "name": "V17 仁爱楼",
        "name:en": "V17 Ren Ai House",
        "name:zh": "V17 仁爱楼",
        "@geometry": "center"
      },
      "geometry": {
        "type": "Point",
        "coordinates": [
          113.5159151,
          22.3547119
        ]
      },
      "id": "way/664093287"
    },
    {
      "type": "Feature",
      "properties": {
        "@id": "way/664093288",
        "building": "dormitory",
        "building:levels": "7",
        "name": "V16 尚贤楼",
        "name:en": "V16 Shang Xian House",
        "name:zh": "V16 尚贤楼",
        "@geometry": "center"
      },
      "geometry": {
        "type": "Point",
        "coordinates": [
          113.5169717,
          22.3538832
        ]
      },
      "id": "way/664093288"
    },
    {
      "type": "Feature",
      "properties": {
        "@id": "way/664093289",
        "building": "dormitory",
        "building:levels": "6",
        "name": "V15 明心楼",
        "name:en": "V15 Ming Xin House",
        "name:zh": "V15 明心楼",
        "@geometry": "center"
      },
      "geometry": {
        "type": "Point",
        "coordinates": [
          113.5167935,
          22.3542448
        ]
      },
      "id": "way/664093289"
    },
    {
      "type": "Feature",
      "properties": {
        "@id": "way/664093290",
        "building": "university",
        "building:levels": "5",
        "name": "文化创意群落",
        "name:en": "Cultural Creativity Clusters",
        "@geometry": "center"
      },
      "geometry": {
        "type": "Point",
        "coordinates": [
          113.5174394,
          22.351782
        ]
      },
      "id": "way/664093290"
    },
    {
      "type": "Feature",
      "properties": {
        "@id": "way/664093294",
        "building": "university",
        "building:levels": "6",
        "layer": "2",
        "name": "T29 教学楼",
        "name:en": "T29 Teaching Building",
        "@geometry": "center"
      },
      "geometry": {
        "type": "Point",
        "coordinates": [
          113.5138758,
          22.3539434
        ]
      },
      "id": "way/664093294"
    },
    {
      "type": "Feature",
      "properties": {
        "@id": "way/1081327620",
        "building": "dormitory",
        "building:levels": "7",
        "name": "V29 容闳楼",
        "name:en": "V29 Yung Wing House",
        "name:zh": "V29 容闳楼",
        "@geometry": "center"
      },
      "geometry": {
        "type": "Point",
        "coordinates": [
          113.5131832,
          22.3529774
        ]
      },
      "id": "way/1081327620"
    },
    {
      "type": "Feature",
      "properties": {
        "@id": "way/1090664747",
        "amenity": "parking",
        "@geometry": "center"
      },
      "geometry": {
        "type": "Point",
        "coordinates": [
          113.5140695,
          22.3520145
        ]
      },
      "id": "way/1090664747"
    },
    {
      "type": "Feature",
      "properties": {
        "@id": "way/1215983507",
        "amenity": "library",
        "building": "university",
        "building:levels": "1",
        "name": "学习资源中心",
        "name:en": "Learning Resource Center",
        "operator": "北师香港浸会大学",
        "toilets": "yes",
        "@geometry": "center"
      },
      "geometry": {
        "type": "Point",
        "coordinates": [
          113.5157786,
          22.3524876
        ]
      },
      "id": "way/1215983507"
    },
    {
      "type": "Feature",
      "properties": {
        "@id": "way/1256778264",
        "amenity": "parking",
        "@geometry": "center"
      },
      "geometry": {
        "type": "Point",
        "coordinates": [
          113.5120673,
          22.3535845
        ]
      },
      "id": "way/1256778264"
    },
    {
      "type": "Feature",
      "properties": {
        "@id": "way/1434554455",
        "amenity": "bicycle_parking",
        "building": "roof",
        "@geometry": "center"
      },
      "geometry": {
        "type": "Point",
        "coordinates": [
          113.512039,
          22.3614644
        ]
      },
      "id": "way/1434554455"
    },
    {
      "type": "Feature",
      "properties": {
        "@id": "way/1434554456",
        "amenity": "bicycle_parking",
        "building": "roof",
        "@geometry": "center"
      },
      "geometry": {
        "type": "Point",
        "coordinates": [
          113.5119861,
          22.3615434
        ]
      },
      "id": "way/1434554456"
    },
    {
      "type": "Feature",
      "properties": {
        "@id": "way/1434554457",
        "amenity": "waste_transfer_station",
        "building": "yes",
        "@geometry": "center"
      },
      "geometry": {
        "type": "Point",
        "coordinates": [
          113.5094718,
          22.3605649
        ]
      },
      "id": "way/1434554457"
    },
    {
      "type": "Feature",
      "properties": {
        "@id": "way/1443870310",
        "amenity": "food_court",
        "description": "小吃摊贩聚集区",
        "opening_hours": "12:00-23:30",
        "@geometry": "center"
      },
      "geometry": {
        "type": "Point",
        "coordinates": [
          113.5123842,
          22.3535436
        ]
      },
      "id": "way/1443870310"
    },
    {
      "type": "Feature",
      "properties": {
        "@id": "way/1459105110",
        "building": "construction",
        "construction": "roof",
        "height": "9.9",
        "layer": "1",
        "name": "东大门",
        "operator": "北师香港浸会大学",
        "@geometry": "center"
      },
      "geometry": {
        "type": "Point",
        "coordinates": [
          113.5130731,
          22.3663132
        ]
      },
      "id": "way/1459105110"
    },
    {
      "type": "Feature",
      "properties": {
        "@id": "way/1459105115",
        "amenity": "bicycle_parking",
        "@geometry": "center"
      },
      "geometry": {
        "type": "Point",
        "coordinates": [
          113.5125801,
          22.3683373
        ]
      },
      "id": "way/1459105115"
    },
    {
      "type": "Feature",
      "properties": {
        "@id": "way/1459105119",
        "building": "construction",
        "building:levels": "10",
        "construction": "university",
        "height": "61.10",
        "layer": "3",
        "name": "学习资源中心",
        "name:en": "Learning Resource Center",
        "name:zh": "学习资源中心",
        "@geometry": "center"
      },
      "geometry": {
        "type": "Point",
        "coordinates": [
          113.5124627,
          22.367846
        ]
      },
      "id": "way/1459105119"
    },
    {
      "type": "Feature",
      "properties": {
        "@id": "node/6215835344",
        "artwork_type": "sculpture",
        "name": "金手指",
        "tourism": "artwork"
      },
      "geometry": {
        "type": "Point",
        "coordinates": [
          113.5157701,
          22.3516585
        ]
      },
      "id": "node/6215835344"
    },
    {
      "type": "Feature",
      "properties": {
        "@id": "node/6215835345",
        "artwork_type": "sculpture",
        "name": "妃子笑",
        "tourism": "artwork"
      },
      "geometry": {
        "type": "Point",
        "coordinates": [
          113.5146821,
          22.353219
        ]
      },
      "id": "node/6215835345"
    },
    {
      "type": "Feature",
      "properties": {
        "@id": "node/9989780647",
        "description": "校名石",
        "tourism": "artwork"
      },
      "geometry": {
        "type": "Point",
        "coordinates": [
          113.5150538,
          22.350954
        ]
      },
      "id": "node/9989780647"
    },
    {
      "type": "Feature",
      "properties": {
        "@id": "node/9989780651",
        "amenity": "parking_entrance"
      },
      "geometry": {
        "type": "Point",
        "coordinates": [
          113.5138667,
          22.3520899
        ]
      },
      "id": "node/9989780651"
    },
    {
      "type": "Feature",
      "properties": {
        "@id": "node/11063042269",
        "brand": "7-Eleven",
        "brand:wikidata": "Q259340",
        "level": "0",
        "name": "7-Eleven",
        "note": "1F",
        "shop": "convenience"
      },
      "geometry": {
        "type": "Point",
        "coordinates": [
          113.5134257,
          22.3536325
        ]
      },
      "id": "node/11063042269"
    },
    {
      "type": "Feature",
      "properties": {
        "@id": "node/11063100296",
        "name": "金融商务中心",
        "shop": "copyshop"
      },
      "geometry": {
        "type": "Point",
        "coordinates": [
          113.5136193,
          22.3543179
        ]
      },
      "id": "node/11063100296"
    },
    {
      "type": "Feature",
      "properties": {
        "@id": "node/11063100297",
        "level": "0",
        "name": "得一便利",
        "shop": "department_store"
      },
      "geometry": {
        "type": "Point",
        "coordinates": [
          113.5167224,
          22.3532232
        ]
      },
      "id": "node/11063100297"
    },
    {
      "type": "Feature",
      "properties": {
        "@id": "node/11063100298",
        "amenity": "doctors",
        "healthcare": "doctor",
        "level": "0",
        "level:ref": "1",
        "name": "医疗及健康教育中心",
        "name:en": "Medical and Health Education Office",
        "operator": "北京师范大学-香港浸会大学联合国际学院",
        "phone": "+86 756 362 0555;+86 756 362 0120",
        "website": "https://mheo.uic.edu.cn"
      },
      "geometry": {
        "type": "Point",
        "coordinates": [
          113.5139815,
          22.3528979
        ]
      },
      "id": "node/11063100298"
    },
    {
      "type": "Feature",
      "properties": {
        "@id": "node/11063115265",
        "amenity": "food_court",
        "name": "德保餐厅",
        "name:en": "Debo Canteen"
      },
      "geometry": {
        "type": "Point",
        "coordinates": [
          113.5173151,
          22.3532341
        ]
      },
      "id": "node/11063115265"
    },
    {
      "type": "Feature",
      "properties": {
        "@id": "node/11140366352",
        "amenity": "post_office",
        "brand": "菜鸟驿站",
        "brand:en": "CAI NIAO",
        "brand:wikidata": "Q16947973",
        "brand:zh": "菜鸟驿站",
        "name": "菜鸟驿站",
        "name:en": "CAI NIAO",
        "name:zh": "菜鸟驿站",
        "operator": "菜鸟驿站",
        "operator:wikidata": "Q16947973"
      },
      "geometry": {
        "type": "Point",
        "coordinates": [
          113.5138561,
          22.3536696
        ]
      },
      "id": "node/11140366352"
    },
    {
      "type": "Feature",
      "properties": {
        "@id": "node/11140366360",
        "amenity": "post_office",
        "brand": "顺丰速运",
        "brand:en": "SF Express",
        "brand:short": "顺丰",
        "brand:wikidata": "Q7390019",
        "brand:zh": "顺丰速运",
        "name": "顺丰速运",
        "name:en": "SF Express",
        "name:zh": "顺丰速运",
        "operator": "顺丰速运",
        "operator:wikidata": "Q7390019",
        "short_name": "顺丰"
      },
      "geometry": {
        "type": "Point",
        "coordinates": [
          113.5138087,
          22.3535834
        ]
      },
      "id": "node/11140366360"
    },
    {
      "type": "Feature",
      "properties": {
        "@id": "node/11140543103",
        "brand": "7-Eleven",
        "brand:wikidata": "Q259340",
        "name": "7-Eleven",
        "shop": "convenience"
      },
      "geometry": {
        "type": "Point",
        "coordinates": [
          113.5113792,
          22.361566
        ]
      },
      "id": "node/11140543103"
    },
    {
      "type": "Feature",
      "properties": {
        "@id": "node/11141442227",
        "check_date": "2024-04-10",
        "name": "得一便利",
        "opening_hours": "24/7",
        "shop": "convenience"
      },
      "geometry": {
        "type": "Point",
        "coordinates": [
          113.510319,
          22.361392
        ]
      },
      "id": "node/11141442227"
    },
    {
      "type": "Feature",
      "properties": {
        "@id": "node/11141455261",
        "amenity": "cafe",
        "brand": "瑞幸咖啡",
        "brand:en": "Luckin Coffee",
        "brand:wikidata": "Q56811344",
        "brand:zh": "瑞幸咖啡",
        "cuisine": "coffee_shop",
        "name": "瑞幸咖啡",
        "name:en": "Luckin Coffee",
        "name:zh": "瑞幸咖啡",
        "takeaway": "yes"
      },
      "geometry": {
        "type": "Point",
        "coordinates": [
          113.5150441,
          22.3522708
        ]
      },
      "id": "node/11141455261"
    },
    {
      "type": "Feature",
      "properties": {
        "@id": "node/11141455262",
        "brand": "7-Eleven",
        "brand:wikidata": "Q259340",
        "name": "7-Eleven",
        "opening_hours": "08:00-22:00",
        "shop": "convenience",
        "wheelchair": "yes"
      },
      "geometry": {
        "type": "Point",
        "coordinates": [
          113.5165326,
          22.3518048
        ]
      },
      "id": "node/11141455262"
    },
    {
      "type": "Feature",
      "properties": {
        "@id": "node/11141455263",
        "amenity": "waste_transfer_station",
        "name": "垃圾中转站",
        "name:en": "Garbage Transfer Station"
      },
      "geometry": {
        "type": "Point",
        "coordinates": [
          113.5143047,
          22.3533667
        ]
      },
      "id": "node/11141455263"
    },
    {
      "type": "Feature",
      "properties": {
        "@id": "node/11141455264",
        "amenity": "fast_food",
        "brand": "肯德基",
        "brand:en": "KFC",
        "brand:wikidata": "Q524757",
        "brand:zh": "肯德基",
        "brand:zh-Hans": "肯德基",
        "brand:zh-Hant": "肯德基",
        "cuisine": "chicken",
        "name": "肯德基",
        "name:en": "KFC",
        "name:zh": "肯德基",
        "name:zh-Hans": "肯德基",
        "name:zh-Hant": "肯德基",
        "takeaway": "yes"
      },
      "geometry": {
        "type": "Point",
        "coordinates": [
          113.5174572,
          22.3531918
        ]
      },
      "id": "node/11141455264"
    },
    {
      "type": "Feature",
      "properties": {
        "@id": "node/11141455266",
        "level": "0",
        "level:ref": "1",
        "name": "初选",
        "shop": "bakery"
      },
      "geometry": {
        "type": "Point",
        "coordinates": [
          113.5150025,
          22.3522812
        ]
      },
      "id": "node/11141455266"
    },
    {
      "type": "Feature",
      "properties": {
        "@id": "node/11141661166",
        "amenity": "restaurant",
        "cuisine": "chinese",
        "name": "溢香源 A店"
      },
      "geometry": {
        "type": "Point",
        "coordinates": [
          113.5116052,
          22.3615945
        ]
      },
      "id": "node/11141661166"
    },
    {
      "type": "Feature",
      "properties": {
        "@id": "node/11141661167",
        "amenity": "restaurant",
        "cuisine": "chinese",
        "name": "溢香源 B店"
      },
      "geometry": {
        "type": "Point",
        "coordinates": [
          113.5113752,
          22.3617148
        ]
      },
      "id": "node/11141661167"
    },
    {
      "type": "Feature",
      "properties": {
        "@id": "node/11146188479",
        "level": "1",
        "name": "来客超市",
        "note": "2F",
        "shop": "supermarket"
      },
      "geometry": {
        "type": "Point",
        "coordinates": [
          113.5135136,
          22.3533971
        ]
      },
      "id": "node/11146188479"
    },
    {
      "type": "Feature",
      "properties": {
        "@id": "node/11146188480",
        "amenity": "food_court",
        "cuisine": "chinese",
        "name": "蜀香园"
      },
      "geometry": {
        "type": "Point",
        "coordinates": [
          113.5129963,
          22.3531493
        ]
      },
      "id": "node/11146188480"
    },
    {
      "type": "Feature",
      "properties": {
        "@id": "node/11146188481",
        "amenity": "food_court",
        "cuisine": "chinese",
        "level": "1",
        "name": "琢乐汇",
        "note": "2F"
      },
      "geometry": {
        "type": "Point",
        "coordinates": [
          113.5134789,
          22.3538399
        ]
      },
      "id": "node/11146188481"
    },
    {
      "type": "Feature",
      "properties": {
        "@id": "node/11146188482",
        "amenity": "cafe",
        "brand": "一点点",
        "brand:en": "alittle-tea",
        "brand:wikidata": "Q106926258",
        "brand:zh": "一点点",
        "cuisine": "bubble_tea",
        "name": "一点点",
        "name:en": "alittle-tea",
        "name:zh": "一点点",
        "takeaway": "yes"
      },
      "geometry": {
        "type": "Point",
        "coordinates": [
          113.5133619,
          22.3524155
        ]
      },
      "id": "node/11146188482"
    },
    {
      "type": "Feature",
      "properties": {
        "@id": "node/11146188488",
        "amenity": "restaurant",
        "cuisine": "chinese",
        "name": "重庆小面"
      },
      "geometry": {
        "type": "Point",
        "coordinates": [
          113.5136155,
          22.3542222
        ]
      },
      "id": "node/11146188488"
    },
    {
      "type": "Feature",
      "properties": {
        "@id": "node/11147382145",
        "level": "0",
        "level:ref": "1",
        "name": "学生事务处",
        "name:en": "Student Affairs Office",
        "office": "consulting",
        "operator": "北京师范大学-香港浸会大学联合国际学院",
        "short_name": "SAO",
        "website": "https://sao.uic.edu.cn/"
      },
      "geometry": {
        "type": "Point",
        "coordinates": [
          113.5167127,
          22.3530317
        ]
      },
      "id": "node/11147382145"
    },
    {
      "type": "Feature",
      "properties": {
        "@id": "node/11147382146",
        "level": "0",
        "level:ref": "1",
        "name": "国际发展处",
        "name:en": "International Development Office",
        "office": "consulting",
        "operator": "北京师范大学-香港浸会大学联合国际学院",
        "short_name": "IDO",
        "website": "https://ido.uic.edu.cn/"
      },
      "geometry": {
        "type": "Point",
        "coordinates": [
          113.5169429,
          22.3531612
        ]
      },
      "id": "node/11147382146"
    },
    {
      "type": "Feature",
      "properties": {
        "@id": "node/11148179153",
        "amenity": "cafe",
        "cuisine": "bubble_tea",
        "name": "发达猫"
      },
      "geometry": {
        "type": "Point",
        "coordinates": [
          113.5134984,
          22.3542095
        ]
      },
      "id": "node/11148179153"
    },
    {
      "type": "Feature",
      "properties": {
        "@id": "node/11148179154",
        "amenity": "social_centre",
        "level": "1",
        "level:ref": "2",
        "name": "师生活动中心",
        "name:en": "Staff and Student Activities Center"
      },
      "geometry": {
        "type": "Point",
        "coordinates": [
          113.5170181,
          22.3533509
        ]
      },
      "id": "node/11148179154"
    },
    {
      "type": "Feature",
      "properties": {
        "@id": "node/11148179155",
        "name": "初选",
        "shop": "bakery"
      },
      "geometry": {
        "type": "Point",
        "coordinates": [
          113.5115756,
          22.3611034
        ]
      },
      "id": "node/11148179155"
    },
    {
      "type": "Feature",
      "properties": {
        "@id": "node/11148179156",
        "amenity": "cafe",
        "brand": "益禾堂",
        "brand:en": "YH.Tang",
        "brand:wikidata": "Q110287075",
        "brand:zh": "益禾堂",
        "cuisine": "bubble_tea",
        "name": "益禾堂",
        "name:en": "YH.Tang",
        "name:zh": "益禾堂",
        "opening_hours": "Mo-Su 08:00-22:00",
        "takeaway": "yes"
      },
      "geometry": {
        "type": "Point",
        "coordinates": [
          113.5128351,
          22.353244
        ]
      },
      "id": "node/11148179156"
    },
    {
      "type": "Feature",
      "properties": {
        "@id": "node/11148179157",
        "amenity": "post_office",
        "brand": "菜鸟驿站",
        "brand:en": "CAI NIAO",
        "brand:wikidata": "Q16947973",
        "brand:zh": "菜鸟驿站",
        "name": "菜鸟驿站",
        "name:en": "CAI NIAO",
        "name:zh": "菜鸟驿站",
        "opening_hours": "Mo-Su 09:00-19:00"
      },
      "geometry": {
        "type": "Point",
        "coordinates": [
          113.510036,
          22.3604347
        ]
      },
      "id": "node/11148179157"
    },
    {
      "type": "Feature",
      "properties": {
        "@id": "node/11155323617",
        "amenity": "restaurant",
        "level": "0",
        "name": "鑫梦园"
      },
      "geometry": {
        "type": "Point",
        "coordinates": [
          113.5133362,
          22.3535378
        ]
      },
      "id": "node/11155323617"
    },
    {
      "type": "Feature",
      "properties": {
        "@id": "node/11155323619",
        "level": "0",
        "level:ref": "1",
        "name": "拾光文创馆",
        "shop": "gift"
      },
      "geometry": {
        "type": "Point",
        "coordinates": [
          113.5154009,
          22.3520585
        ]
      },
      "id": "node/11155323619"
    },
    {
      "type": "Feature",
      "properties": {
        "@id": "node/11155323622",
        "amenity": "cafe",
        "cuisine": "bubble_tea",
        "name": "尝绿"
      },
      "geometry": {
        "type": "Point",
        "coordinates": [
          113.5137389,
          22.3521539
        ]
      },
      "id": "node/11155323622"
    },
    {
      "type": "Feature",
      "properties": {
        "@id": "node/11155323624",
        "amenity": "atm",
        "brand": "交通银行",
        "brand:en": "Bank of Communications",
        "brand:wikidata": "Q806680",
        "brand:zh": "交通银行",
        "brand:zh-Hans": "交通银行",
        "brand:zh-Hant": "交通銀行",
        "level": "0",
        "level:ref": "1",
        "name:en": "Bank of Communications",
        "name:zh": "交通银行",
        "operator": "交通银行",
        "operator:wikidata": "Q806680"
      },
      "geometry": {
        "type": "Point",
        "coordinates": [
          113.515525,
          22.3519578
        ]
      },
      "id": "node/11155323624"
    },
    {
      "type": "Feature",
      "properties": {
        "@id": "node/11160357959",
        "amenity": "cafe",
        "name": "浮屿",
        "name:en": "For You",
        "operator": "For You"
      },
      "geometry": {
        "type": "Point",
        "coordinates": [
          113.5165564,
          22.3518395
        ]
      },
      "id": "node/11160357959"
    },
    {
      "type": "Feature",
      "properties": {
        "@id": "node/11162632253",
        "amenity": "restaurant",
        "level": "1",
        "name": "优爱餐厅",
        "note": "2F"
      },
      "geometry": {
        "type": "Point",
        "coordinates": [
          113.5135558,
          22.3532978
        ]
      },
      "id": "node/11162632253"
    },
    {
      "type": "Feature",
      "properties": {
        "@id": "node/11180462964",
        "amenity": "restaurant",
        "name": "重庆鸡公煲"
      },
      "geometry": {
        "type": "Point",
        "coordinates": [
          113.5132977,
          22.3545464
        ]
      },
      "id": "node/11180462964"
    },
    {
      "type": "Feature",
      "properties": {
        "@id": "node/11180462965",
        "amenity": "restaurant",
        "branch": "UIC北师港浸大店",
        "name": "塔斯汀中国汉堡"
      },
      "geometry": {
        "type": "Point",
        "coordinates": [
          113.5132227,
          22.3545469
        ]
      },
      "id": "node/11180462965"
    },
    {
      "type": "Feature",
      "properties": {
        "@id": "node/11199597079",
        "amenity": "restaurant",
        "name": "中盈餐厅"
      },
      "geometry": {
        "type": "Point",
        "coordinates": [
          113.5126489,
          22.3530072
        ]
      },
      "id": "node/11199597079"
    },
    {
      "type": "Feature",
      "properties": {
        "@id": "node/11199597082",
        "amenity": "restaurant",
        "name": "牛昆记 沙县小吃"
      },
      "geometry": {
        "type": "Point",
        "coordinates": [
          113.5129667,
          22.353107
        ]
      },
      "id": "node/11199597082"
    },
    {
      "type": "Feature",
      "properties": {
        "@id": "node/11206838627",
        "amenity": "cafe",
        "cuisine": "bubble_tea",
        "name": "古春堂 凉茶糖水铺"
      },
      "geometry": {
        "type": "Point",
        "coordinates": [
          113.5127108,
          22.3536936
        ]
      },
      "id": "node/11206838627"
    },
    {
      "type": "Feature",
      "properties": {
        "@id": "node/11206838636",
        "name": "i果鲜切",
        "shop": "greengrocer"
      },
      "geometry": {
        "type": "Point",
        "coordinates": [
          113.5126622,
          22.3536251
        ]
      },
      "id": "node/11206838636"
    },
    {
      "type": "Feature",
      "properties": {
        "@id": "node/11206950140",
        "amenity": "restaurant",
        "name": "兰州拉面"
      },
      "geometry": {
        "type": "Point",
        "coordinates": [
          113.5133615,
          22.3545508
        ]
      },
      "id": "node/11206950140"
    },
    {
      "type": "Feature",
      "properties": {
        "@id": "node/11206950143",
        "amenity": "cafe",
        "brand": "瑞幸咖啡",
        "brand:en": "Luckin Coffee",
        "brand:wikidata": "Q56811344",
        "brand:zh": "瑞幸咖啡",
        "cuisine": "coffee_shop",
        "name": "瑞幸咖啡",
        "name:en": "Luckin Coffee",
        "name:zh": "瑞幸咖啡",
        "takeaway": "yes"
      },
      "geometry": {
        "type": "Point",
        "coordinates": [
          113.5127456,
          22.3537662
        ]
      },
      "id": "node/11206950143"
    },
    {
      "type": "Feature",
      "properties": {
        "@id": "node/11206950144",
        "amenity": "food_court",
        "name": "UIC 休闲小栈"
      },
      "geometry": {
        "type": "Point",
        "coordinates": [
          113.5124993,
          22.3531514
        ]
      },
      "id": "node/11206950144"
    },
    {
      "type": "Feature",
      "properties": {
        "@id": "node/11206950146",
        "amenity": "social_centre",
        "level": "0",
        "name": "师生活动中心",
        "name:en": "Staff and Student Activities Center",
        "note": "1F"
      },
      "geometry": {
        "type": "Point",
        "coordinates": [
          113.5133983,
          22.3538205
        ]
      },
      "id": "node/11206950146"
    },
    {
      "type": "Feature",
      "properties": {
        "@id": "node/11206950153",
        "amenity": "food_court",
        "name": "味旋律"
      },
      "geometry": {
        "type": "Point",
        "coordinates": [
          113.5128,
          22.3532581
        ]
      },
      "id": "node/11206950153"
    },
    {
      "type": "Feature",
      "properties": {
        "@id": "node/11260191220",
        "amenity": "lost_property_office",
        "level": "3"
      },
      "geometry": {
        "type": "Point",
        "coordinates": [
          113.5159417,
          22.3533966
        ]
      },
      "id": "node/11260191220"
    },
    {
      "type": "Feature",
      "properties": {
        "@id": "node/11671590282",
        "name": "校园图文",
        "shop": "copyshop"
      },
      "geometry": {
        "type": "Point",
        "coordinates": [
          113.5104236,
          22.3611222
        ]
      },
      "id": "node/11671590282"
    },
    {
      "type": "Feature",
      "properties": {
        "@id": "node/11671590283",
        "amenity": "restaurant",
        "check_date": "2024-04-10",
        "cuisine": "pizza",
        "name": "披萨之神",
        "opening_hours": "11:00-19:00"
      },
      "geometry": {
        "type": "Point",
        "coordinates": [
          113.5104347,
          22.3612745
        ]
      },
      "id": "node/11671590283"
    },
    {
      "type": "Feature",
      "properties": {
        "@id": "node/11671590284",
        "amenity": "bicycle_parking"
      },
      "geometry": {
        "type": "Point",
        "coordinates": [
          113.5118941,
          22.3604445
        ]
      },
      "id": "node/11671590284"
    },
    {
      "type": "Feature",
      "properties": {
        "@id": "node/11671590286",
        "amenity": "cafe",
        "name": "檀香山咖啡"
      },
      "geometry": {
        "type": "Point",
        "coordinates": [
          113.5105109,
          22.3607097
        ]
      },
      "id": "node/11671590286"
    },
    {
      "type": "Feature",
      "properties": {
        "@id": "node/11671590288",
        "amenity": "cafe",
        "cuisine": "bubble_tea",
        "name": "简也茶集",
        "name:en": "Can Tea"
      },
      "geometry": {
        "type": "Point",
        "coordinates": [
          113.5111361,
          22.360605
        ]
      },
      "id": "node/11671590288"
    },
    {
      "type": "Feature",
      "properties": {
        "@id": "node/11683863456",
        "amenity": "bench",
        "backrest": "yes"
      },
      "geometry": {
        "type": "Point",
        "coordinates": [
          113.5143875,
          22.3524741
        ]
      },
      "id": "node/11683863456"
    },
    {
      "type": "Feature",
      "properties": {
        "@id": "node/11683863459",
        "amenity": "waste_disposal"
      },
      "geometry": {
        "type": "Point",
        "coordinates": [
          113.5132736,
          22.3538656
        ]
      },
      "id": "node/11683863459"
    },
    {
      "type": "Feature",
      "properties": {
        "@id": "node/11723871923",
        "amenity": "cafe",
        "brand": "库迪咖啡",
        "brand:en": "Cotti Coffee",
        "brand:wikidata": "Q123370986",
        "brand:zh": "库迪咖啡",
        "cuisine": "coffee_shop",
        "level": "1",
        "name": "库迪咖啡",
        "name:en": "Cotti Coffee",
        "name:zh": "库迪咖啡",
        "note": "2F",
        "takeaway": "yes"
      },
      "geometry": {
        "type": "Point",
        "coordinates": [
          113.5134323,
          22.3535423
        ]
      },
      "id": "node/11723871923"
    },
    {
      "type": "Feature",
      "properties": {
        "@id": "node/11723871924",
        "amenity": "restaurant",
        "name": "心潮"
      },
      "geometry": {
        "type": "Point",
        "coordinates": [
          113.5135701,
          22.3521591
        ]
      },
      "id": "node/11723871924"
    },
    {
      "type": "Feature",
      "properties": {
        "@id": "node/11723871925",
        "amenity": "cafe",
        "brand": "蜜雪冰城",
        "brand:en": "MIXUEBINGCHENG",
        "brand:wikidata": "Q107406476",
        "brand:zh": "蜜雪冰城",
        "cuisine": "ice_cream;bubble_tea",
        "level": "1",
        "name": "蜜雪冰城",
        "name:en": "MIXUEBINGCHENG",
        "name:zh": "蜜雪冰城",
        "note": "2F",
        "takeaway": "yes"
      },
      "geometry": {
        "type": "Point",
        "coordinates": [
          113.5136537,
          22.3532637
        ]
      },
      "id": "node/11723871925"
    },
    {
      "type": "Feature",
      "properties": {
        "@id": "node/11723871926",
        "amenity": "cafe",
        "cuisine": "bubble_tea",
        "name": "雾鲜"
      },
      "geometry": {
        "type": "Point",
        "coordinates": [
          113.5137204,
          22.3521219
        ]
      },
      "id": "node/11723871926"
    },
    {
      "type": "Feature",
      "properties": {
        "@id": "node/11723871927",
        "amenity": "restaurant",
        "name": "广式拉肠"
      },
      "geometry": {
        "type": "Point",
        "coordinates": [
          113.5135148,
          22.3521974
        ]
      },
      "id": "node/11723871927"
    },
    {
      "type": "Feature",
      "properties": {
        "@id": "node/11723871929",
        "amenity": "restaurant",
        "name": "Yo健康料理"
      },
      "geometry": {
        "type": "Point",
        "coordinates": [
          113.5136542,
          22.3521491
        ]
      },
      "id": "node/11723871929"
    },
    {
      "type": "Feature",
      "properties": {
        "@id": "node/11723871930",
        "amenity": "cafe",
        "brand": "书亦烧仙草",
        "brand:en": "Shuyi Tealicious",
        "brand:wikidata": "Q107729359",
        "brand:zh": "书亦烧仙草",
        "cuisine": "bubble_tea",
        "name": "书亦烧仙草",
        "name:en": "Shuyi Tealicious",
        "name:zh": "书亦烧仙草",
        "takeaway": "yes"
      },
      "geometry": {
        "type": "Point",
        "coordinates": [
          113.5173585,
          22.3531277
        ]
      },
      "id": "node/11723871930"
    },
    {
      "type": "Feature",
      "properties": {
        "@id": "node/11723871931",
        "amenity": "restaurant",
        "name": "大鱿文章"
      },
      "geometry": {
        "type": "Point",
        "coordinates": [
          113.5135398,
          22.3522379
        ]
      },
      "id": "node/11723871931"
    },
    {
      "type": "Feature",
      "properties": {
        "@id": "node/11723871932",
        "amenity": "restaurant",
        "name": "叻鲨朝"
      },
      "geometry": {
        "type": "Point",
        "coordinates": [
          113.5135697,
          22.3522469
        ]
      },
      "id": "node/11723871932"
    },
    {
      "type": "Feature",
      "properties": {
        "@id": "node/11723871934",
        "amenity": "restaurant",
        "name": "恺撒披萨"
      },
      "geometry": {
        "type": "Point",
        "coordinates": [
          113.5133577,
          22.3542039
        ]
      },
      "id": "node/11723871934"
    },
    {
      "type": "Feature",
      "properties": {
        "@id": "node/11723871935",
        "amenity": "fast_food",
        "brand": "赛百味",
        "brand:en": "Subway",
        "brand:wikidata": "Q244457",
        "brand:zh": "赛百味",
        "cuisine": "sandwich",
        "level": "1",
        "name": "赛百味",
        "name:en": "Subway",
        "name:zh": "赛百味",
        "note": "2F",
        "takeaway": "yes"
      },
      "geometry": {
        "type": "Point",
        "coordinates": [
          113.5134039,
          22.3534135
        ]
      },
      "id": "node/11723871935"
    },
    {
      "type": "Feature",
      "properties": {
        "@id": "node/11723871936",
        "amenity": "restaurant",
        "name": "1762s"
      },
      "geometry": {
        "type": "Point",
        "coordinates": [
          113.5137009,
          22.3520897
        ]
      },
      "id": "node/11723871936"
    },
    {
      "type": "Feature",
      "properties": {
        "@id": "node/11723871937",
        "amenity": "restaurant",
        "name": "云湘味"
      },
      "geometry": {
        "type": "Point",
        "coordinates": [
          113.5135281,
          22.3522178
        ]
      },
      "id": "node/11723871937"
    },
    {
      "type": "Feature",
      "properties": {
        "@id": "node/11733097041",
        "amenity": "restaurant",
        "name": "自选饺子"
      },
      "geometry": {
        "type": "Point",
        "coordinates": [
          113.5171774,
          22.3533952
        ]
      },
      "id": "node/11733097041"
    },
    {
      "type": "Feature",
      "properties": {
        "@id": "node/11733097042",
        "amenity": "restaurant",
        "name": "麻辣香锅"
      },
      "geometry": {
        "type": "Point",
        "coordinates": [
          113.5134582,
          22.3539492
        ]
      },
      "id": "node/11733097042"
    },
    {
      "type": "Feature",
      "properties": {
        "@id": "node/11733097043",
        "amenity": "restaurant",
        "name": "刘福记"
      },
      "geometry": {
        "type": "Point",
        "coordinates": [
          113.5135426,
          22.3539116
        ]
      },
      "id": "node/11733097043"
    },
    {
      "type": "Feature",
      "properties": {
        "@id": "node/11733097045",
        "amenity": "restaurant",
        "name": "大众自选 中式早餐"
      },
      "geometry": {
        "type": "Point",
        "coordinates": [
          113.5173213,
          22.3533582
        ]
      },
      "id": "node/11733097045"
    },
    {
      "type": "Feature",
      "properties": {
        "@id": "node/11733097046",
        "amenity": "restaurant",
        "name": "东北人家"
      },
      "geometry": {
        "type": "Point",
        "coordinates": [
          113.5134981,
          22.353924
        ]
      },
      "id": "node/11733097046"
    },
    {
      "type": "Feature",
      "properties": {
        "@id": "node/11733097047",
        "amenity": "restaurant",
        "name": "港式茶餐厅•扒饭"
      },
      "geometry": {
        "type": "Point",
        "coordinates": [
          113.5171446,
          22.3534047
        ]
      },
      "id": "node/11733097047"
    },
    {
      "type": "Feature",
      "properties": {
        "@id": "node/11733097048",
        "amenity": "restaurant",
        "name": "兰州拉面"
      },
      "geometry": {
        "type": "Point",
        "coordinates": [
          113.5135956,
          22.3539036
        ]
      },
      "id": "node/11733097048"
    },
    {
      "type": "Feature",
      "properties": {
        "@id": "node/11733097050",
        "amenity": "restaurant",
        "name": "喜记云饺"
      },
      "geometry": {
        "type": "Point",
        "coordinates": [
          113.5127754,
          22.3532918
        ]
      },
      "id": "node/11733097050"
    },
    {
      "type": "Feature",
      "properties": {
        "@id": "node/11733097051",
        "amenity": "restaurant",
        "name": "汕头牛肉饭"
      },
      "geometry": {
        "type": "Point",
        "coordinates": [
          113.5171168,
          22.3534124
        ]
      },
      "id": "node/11733097051"
    },
    {
      "type": "Feature",
      "properties": {
        "@id": "node/11733097052",
        "amenity": "restaurant",
        "name": "汕头粿条汤"
      },
      "geometry": {
        "type": "Point",
        "coordinates": [
          113.5172835,
          22.3533682
        ]
      },
      "id": "node/11733097052"
    },
    {
      "type": "Feature",
      "properties": {
        "@id": "node/11733097054",
        "name": "果奶汇 水果捞",
        "shop": "greengrocer"
      },
      "geometry": {
        "type": "Point",
        "coordinates": [
          113.5170822,
          22.3533462
        ]
      },
      "id": "node/11733097054"
    },
    {
      "type": "Feature",
      "properties": {
        "@id": "node/11733097055",
        "amenity": "restaurant",
        "name": "港式烧腊"
      },
      "geometry": {
        "type": "Point",
        "coordinates": [
          113.5172461,
          22.353377
        ]
      },
      "id": "node/11733097055"
    },
    {
      "type": "Feature",
      "properties": {
        "@id": "node/11733097056",
        "amenity": "restaurant",
        "name": "福建小吃"
      },
      "geometry": {
        "type": "Point",
        "coordinates": [
          113.5172114,
          22.3533862
        ]
      },
      "id": "node/11733097056"
    },
    {
      "type": "Feature",
      "properties": {
        "@id": "node/11866036930",
        "amenity": "food_court",
        "name": "今雨轩",
        "operator": "Friends Canteen"
      },
      "geometry": {
        "type": "Point",
        "coordinates": [
          113.5114736,
          22.3628296
        ]
      },
      "id": "node/11866036930"
    },
    {
      "type": "Feature",
      "properties": {
        "@id": "node/11866036939",
        "name": "UIC 高等研究院",
        "name:en": "UIC Institute for Advanced Study",
        "office": "educational_institution"
      },
      "geometry": {
        "type": "Point",
        "coordinates": [
          113.5118155,
          22.3628008
        ]
      },
      "id": "node/11866036939"
    },
    {
      "type": "Feature",
      "properties": {
        "@id": "node/11878758477",
        "amenity": "doctors",
        "healthcare": "doctor"
      },
      "geometry": {
        "type": "Point",
        "coordinates": [
          113.5111008,
          22.3602837
        ]
      },
      "id": "node/11878758477"
    },
    {
      "type": "Feature",
      "properties": {
        "@id": "node/11878758478",
        "level": "1",
        "level:ref": "2",
        "name": "信息科技与服务中心",
        "name:en": "Information and Technology Service Center",
        "office": "it",
        "operator": "北京师范大学-香港浸会大学联合国际学院",
        "short_name": "ITSC",
        "website": "https://itsc.uic.edu.cn/"
      },
      "geometry": {
        "type": "Point",
        "coordinates": [
          113.5148828,
          22.3537885
        ]
      },
      "id": "node/11878758478"
    },
    {
      "type": "Feature",
      "properties": {
        "@id": "node/11878758480",
        "amenity": "internet_cafe",
        "level": "0",
        "level:ref": "1",
        "name": "计算机中心",
        "name:en": "Computer Center",
        "operator": "北师香港浸会大学"
      },
      "geometry": {
        "type": "Point",
        "coordinates": [
          113.516035,
          22.3534575
        ]
      },
      "id": "node/11878758480"
    },
    {
      "type": "Feature",
      "properties": {
        "@id": "node/12207151094",
        "amenity": "post_office",
        "brand": "顺丰速运",
        "brand:en": "SF Express",
        "brand:short": "顺丰",
        "brand:wikidata": "Q7390019",
        "brand:zh": "顺丰速运",
        "name": "顺丰速运",
        "name:en": "SF Express",
        "name:zh": "顺丰速运",
        "operator": "顺丰速运",
        "short_name": "顺丰"
      },
      "geometry": {
        "type": "Point",
        "coordinates": [
          113.5115614,
          22.3609689
        ]
      },
      "id": "node/12207151094"
    },
    {
      "type": "Feature",
      "properties": {
        "@id": "node/12207172200",
        "addr:door": "AD402",
        "amenity": "restaurant",
        "cuisine": "asian",
        "level": "3",
        "level:ref": "4",
        "name": "贤贤居餐厅",
        "name:en": "Staff's Club",
        "opening_hours": "Mo-Su 11:00-14:00,16:30-19:30",
        "operator": "珠海渔记餐饮管理有限公司",
        "outdoor_seating": "yes"
      },
      "geometry": {
        "type": "Point",
        "coordinates": [
          113.5162458,
          22.3511055
        ]
      },
      "id": "node/12207172200"
    },
    {
      "type": "Feature",
      "properties": {
        "@id": "node/12208940811",
        "amenity": "fast_food",
        "name": "戴维斯"
      },
      "geometry": {
        "type": "Point",
        "coordinates": [
          113.5127673,
          22.3532575
        ]
      },
      "id": "node/12208940811"
    },
    {
      "type": "Feature",
      "properties": {
        "@id": "node/12208940812",
        "amenity": "restaurant",
        "name": "湘聚缘"
      },
      "geometry": {
        "type": "Point",
        "coordinates": [
          113.5128178,
          22.353216
        ]
      },
      "id": "node/12208940812"
    },
    {
      "type": "Feature",
      "properties": {
        "@id": "node/12759013032",
        "level": "3",
        "level:ref": "4",
        "name": "物业管理处",
        "name:en": "Estate Management Office",
        "office": "university",
        "short_name": "EMO"
      },
      "geometry": {
        "type": "Point",
        "coordinates": [
          113.5160994,
          22.3509985
        ]
      },
      "id": "node/12759013032"
    },
    {
      "type": "Feature",
      "properties": {
        "@id": "node/12759013033",
        "level": "1",
        "level:ref": "2",
        "name": "教务处",
        "name:en": "Academic Registry",
        "office": "university",
        "short_name": "AR"
      },
      "geometry": {
        "type": "Point",
        "coordinates": [
          113.5161225,
          22.35103
        ]
      },
      "id": "node/12759013033"
    },
    {
      "type": "Feature",
      "properties": {
        "@id": "node/12762188833",
        "amenity": "fire_station"
      },
      "geometry": {
        "type": "Point",
        "coordinates": [
          113.515333,
          22.3517269
        ]
      },
      "id": "node/12762188833"
    },
    {
      "type": "Feature",
      "properties": {
        "@id": "node/12762188837",
        "name": "荔园百货超市",
        "shop": "convenience"
      },
      "geometry": {
        "type": "Point",
        "coordinates": [
          113.5128952,
          22.3528569
        ]
      },
      "id": "node/12762188837"
    },
    {
      "type": "Feature",
      "properties": {
        "@id": "node/12829505518",
        "level": "3",
        "level:ref": "4F",
        "note": "Inside EMO",
        "office": "lost_property"
      },
      "geometry": {
        "type": "Point",
        "coordinates": [
          113.5160773,
          22.350976
        ]
      },
      "id": "node/12829505518"
    },
    {
      "type": "Feature",
      "properties": {
        "@id": "node/13052159142",
        "amenity": "restaurant",
        "brand": "必胜客",
        "brand:en": "Pizza Hut",
        "brand:wikidata": "Q191615",
        "brand:zh": "必胜客",
        "cuisine": "pizza",
        "name": "必胜客",
        "name:en": "Pizza Hut",
        "name:zh": "必胜客"
      },
      "geometry": {
        "type": "Point",
        "coordinates": [
          113.5165237,
          22.3515733
        ]
      },
      "id": "node/13052159142"
    },
    {
      "type": "Feature",
      "properties": {
        "@id": "node/13052159143",
        "amenity": "restaurant",
        "name": "小杨哥猪脚饭"
      },
      "geometry": {
        "type": "Point",
        "coordinates": [
          113.5125363,
          22.3531247
        ]
      },
      "id": "node/13052159143"
    },
    {
      "type": "Feature",
      "properties": {
        "@id": "node/13052159144",
        "amenity": "restaurant",
        "name": "臻苑私厨"
      },
      "geometry": {
        "type": "Point",
        "coordinates": [
          113.5130285,
          22.3526701
        ]
      },
      "id": "node/13052159144"
    },
    {
      "type": "Feature",
      "properties": {
        "@id": "node/13052226573",
        "amenity": "bench"
      },
      "geometry": {
        "type": "Point",
        "coordinates": [
          113.5165809,
          22.3517465
        ]
      },
      "id": "node/13052226573"
    },
    {
      "type": "Feature",
      "properties": {
        "@id": "node/13052226574",
        "name": "创客中心",
        "name:en": "Maker Center",
        "name:zh": "创客中心",
        "office": "yes"
      },
      "geometry": {
        "type": "Point",
        "coordinates": [
          113.5144221,
          22.3527415
        ]
      },
      "id": "node/13052226574"
    },
    {
      "type": "Feature",
      "properties": {
        "@id": "node/13052226575",
        "name": "英语语言中心",
        "name:en": "English Language Centre",
        "name:zh": "英语语言中心",
        "office": "university",
        "short_name": "ELC"
      },
      "geometry": {
        "type": "Point",
        "coordinates": [
          113.5143139,
          22.3527035
        ]
      },
      "id": "node/13052226575"
    },
    {
      "type": "Feature",
      "properties": {
        "@id": "node/13184049732",
        "amenity": "fast_food",
        "brand": "麦当劳",
        "brand:en": "McDonald's",
        "brand:wikidata": "Q38076",
        "brand:zh": "麦当劳",
        "cuisine": "burger",
        "name": "麦当劳",
        "name:en": "McDonald's",
        "name:zh": "麦当劳",
        "takeaway": "yes"
      },
      "geometry": {
        "type": "Point",
        "coordinates": [
          113.516458,
          22.3515775
        ]
      },
      "id": "node/13184049732"
    },
    {
      "type": "Feature",
      "properties": {
        "@id": "node/13190127124",
        "amenity": "restaurant",
        "name": "优创精选 西式早点"
      },
      "geometry": {
        "type": "Point",
        "coordinates": [
          113.5173556,
          22.3533503
        ]
      },
      "id": "node/13190127124"
    },
    {
      "type": "Feature",
      "properties": {
        "@id": "node/13190127125",
        "amenity": "restaurant",
        "name": "云南米线"
      },
      "geometry": {
        "type": "Point",
        "coordinates": [
          113.5170195,
          22.353372
        ]
      },
      "id": "node/13190127125"
    },
    {
      "type": "Feature",
      "properties": {
        "@id": "node/13190127126",
        "amenity": "restaurant",
        "name": "遇见小面"
      },
      "geometry": {
        "type": "Point",
        "coordinates": [
          113.5165289,
          22.3515332
        ]
      },
      "id": "node/13190127126"
    },
    {
      "type": "Feature",
      "properties": {
        "@id": "node/13190127127",
        "amenity": "cafe",
        "brand": "星巴克",
        "brand:en": "Starbucks",
        "brand:wikidata": "Q37158",
        "brand:zh": "星巴克",
        "cuisine": "coffee_shop",
        "name": "星巴克",
        "name:en": "Starbucks",
        "name:zh": "星巴克",
        "takeaway": "yes"
      },
      "geometry": {
        "type": "Point",
        "coordinates": [
          113.5164861,
          22.3515502
        ]
      },
      "id": "node/13190127127"
    },
    {
      "type": "Feature",
      "properties": {
        "@id": "node/13271537361",
        "amenity": "parking_entrance"
      },
      "geometry": {
        "type": "Point",
        "coordinates": [
          113.5125178,
          22.3661077
        ]
      },
      "id": "node/13271537361"
    },
    {
      "type": "Feature",
      "properties": {
        "@id": "node/13381841511",
        "amenity": "parking_entrance"
      },
      "geometry": {
        "type": "Point",
        "coordinates": [
          113.5119548,
          22.3676793
        ]
      },
      "id": "node/13381841511"
    },
    {
      "type": "Feature",
      "properties": {
        "@id": "node/13381841691",
        "amenity": "parking_entrance"
      },
      "geometry": {
        "type": "Point",
        "coordinates": [
          113.5115404,
          22.3666056
        ]
      },
      "id": "node/13381841691"
    },
    {
      "type": "Feature",
      "properties": {
        "@id": "node/13381841737",
        "amenity": "parking_entrance"
      },
      "geometry": {
        "type": "Point",
        "coordinates": [
          113.5110297,
          22.3642542
        ]
      },
      "id": "node/13381841737"
    },
    {
      "type": "Feature",
      "properties": {
        "@id": "node/13383879519",
        "amenity": "parking_entrance"
      },
      "geometry": {
        "type": "Point",
        "coordinates": [
          113.5101369,
          22.3596157
        ]
      },
      "id": "node/13383879519"
    },
    {
      "type": "Feature",
      "properties": {
        "@id": "node/13383879534",
        "amenity": "parking_entrance"
      },
      "geometry": {
        "type": "Point",
        "coordinates": [
          113.5083741,
          22.3579204
        ]
      },
      "id": "node/13383879534"
    }
  ]
}